NORAD_CAT_ID,OBJECT_NAME,OBJECT_TYPE,EPOCH,MEAN_MOTION,ECCENTRICITY,INCLINATION,RA_OF_ASC_NODE,ARG_OF_PERICENTER,MEAN_ANOMALY,BSTAR,MEAN_MOTION_DOT,MEAN_MOTION_DDOT,TLE_LINE0,TLE_LINE1,TLE_LINE2,SEMIMAJOR_AXIS,PERIOD,APOGEE,PERIGEE,DECAYED
50835.0,STARLINK-3310,PAYLOAD,2023-10-21 21:46:14,15.08847614,0.0001281,53.2156,123.8427,86.1677,273.9461,0.0004079,6.211e-05,0.0,0 STARLINK-3310,1 50835U 22001AJ  23294.90711781  .00006211  00000-0  40790-3 0  9993,2 50835  53.2156 123.8427 0001281  86.1677 273.9461 15.08847614 98956,6917.857,95.437,540.608,538.836,0.0
50835.0,STARLINK-3310,PAYLOAD,2023-10-21 23:21:38,15.08848753,0.0001291,53.2156,123.5451,86.0686,274.0454,0.00055825,8.61e-05,0.0,0 STARLINK-3310,1 50835U 22001AJ  23294.97335838  .00008610  00000-0  55825-3 0  9995,2 50835  53.2156 123.5451 0001291  86.0686 274.0454 15.08848753 98960,6917.854,95.437,540.612,538.826,0.0
50835.0,STARLINK-3310,PAYLOAD,2023-10-22 20:01:40,15.08827436,0.0001655,53.2181,119.6754,68.3533,291.7635,-3.5638e-05,-8.55e-06,0.0,0 STARLINK-3310,1 50835U 22001AJ  23295.83449080 -.00000855  00000-0 -35638-4 0  9992,2 50835  53.2181 119.6754 0001655  68.3533 291.7635 15.08827436100357,6917.919,95.438,540.929,538.639,0.0
50835.0,STARLINK-3310,PAYLOAD,2023-10-23 21:27:50,15.08835698,0.000142,53.216,114.9215,86.0496,274.0659,0.00017635,2.519e-05,0.0,0 STARLINK-3310,1 50835U 22001AJ  23296.89433588  .00002519  00000-0  17635-3 0  9998,2 50835  53.2160 114.9215 0001420  86.0496 274.0659 15.08835698 99254,6917.894,95.438,540.741,538.776,0.0
50835.0,STARLINK-3310,PAYLOAD,2023-10-24 03:49:23,15.08837532,0.0001439,53.216,113.7321,85.2415,274.8741,0.00022882,3.355e-05,0.0,0 STARLINK-3310,1 50835U 22001AJ  23297.15929675  .00003355  00000-0  22882-3 0  9994,2 50835  53.2160 113.7321 0001439  85.2415 274.8741 15.08837532100556,6917.888,95.438,540.748,538.757,0.0
50835.0,STARLINK-3310,PAYLOAD,2023-10-24 13:21:42,15.08842043,0.0001431,53.2159,111.9479,85.048,275.0676,0.00044638,6.824e-05,0.0,0 STARLINK-3310,1 50835U 22001AJ  23297.55673755  .00006824  00000-0  44638-3 0  9990,2 50835  53.2159 111.9479 0001431  85.0480 275.0676 15.08842043 99358,6917.874,95.437,540.729,538.749,0.0
50835.0,STARLINK-3310,PAYLOAD,2023-10-25 21:09:23,15.08860775,0.0001445,53.216,106.0003,83.9585,276.1572,0.00040807,6.216e-05,0.0,0 STARLINK-3310,1 50835U 22001AJ  23298.88152548  .00006216  00000-0  40807-3 0  9998,2 50835  53.2160 106.0003 0001445  83.9585 276.1572 15.08860775100819,6917.817,95.436,540.682,538.682,0.0
50835.0,STARLINK-3310,PAYLOAD,2023-10-26 11:27:51,15.08848585,0.0001636,53.2157,103.3241,86.7643,273.3536,2.126e-05,5e-07,0.0,0 STARLINK-3310,1 50835U 22001AJ  23299.47768470  .00000050  00000-0  21260-4 0  9994,2 50835  53.2157 103.3241 0001636  86.7643 273.3536 15.08848585100901,6917.854,95.437,540.851,538.587,0.0
50835.0,STARLINK-3310,PAYLOAD,2023-10-26 14:38:38,15.08851588,0.0001517,53.2165,102.7293,97.1601,262.9563,0.00010369,1.363e-05,0.0,0 STARLINK-3310,1 50835U 22001AJ  23299.61016288  .00001363  00000-0  10369-3 0  9998,2 50835  53.2165 102.7293 0001517  97.1601 262.9563 15.08851588 99669,6917.845,95.437,540.759,538.661,0.0
50835.0,STARLINK-3310,PAYLOAD,2023-10-26 19:24:47,15.08857332,0.0001474,53.2163,101.8369,91.6008,268.5153,0.00016157,2.286e-05,0.0,0 STARLINK-3310,1 50835U 22001AJ  23299.80887868  .00002286  00000-0  16157-3 0  9995,2 50835  53.2163 101.8369 0001474  91.6008 268.5153 15.08857332 99696,6917.827,95.436,540.712,538.673,0.0
50835.0,STARLINK-3310,PAYLOAD,2023-10-27 11:18:38,15.08845352,0.0001278,53.2164,98.8628,93.4326,266.6812,-2.1226e-05,-6.26e-06,0.0,0 STARLINK-3310,1 50835U 22001AJ  23300.47127987 -.00000626  00000-0 -21226-4 0  9992,2 50835  53.2164  98.8628 0001278  93.4326 266.6812 15.08845352 99796,6917.864,95.437,540.613,538.845,0.0
50835.0,STARLINK-3310,PAYLOAD,2023-10-27 17:40:10,15.0885242,0.0001423,53.2164,97.6735,87.1854,272.9301,8.0615e-05,9.96e-06,0.0,0 STARLINK-3310,1 50835U 22001AJ  23300.73623492  .00000996  00000-0  80615-4 0  9998,2 50835  53.2164  97.6735 0001423  87.1854 272.9301 15.08852420101094,6917.842,95.437,540.692,538.723,0.0
50835.0,STARLINK-3310,PAYLOAD,2023-10-28 03:12:29,15.08846997,0.000121,53.2163,95.8909,84.8171,275.296,-1.1542e-05,-4.72e-06,0.0,0 STARLINK-3310,1 50835U 22001AJ  23301.13367564 -.00000472  00000-0 -11542-4 0  9992,2 50835  53.2163  95.8909 0001210  84.8171 275.2960 15.08846997101152,6917.859,95.437,540.561,538.887,0.0
50835.0,STARLINK-3310,PAYLOAD,2023-10-28 14:20:12,15.08829728,0.0001673,53.2169,93.8077,89.7017,270.4167,-0.00017413,-3.057e-05,0.0,0 STARLINK-3310,1 50835U 22001AJ  23301.59736663 -.00003057  00000-0 -17413-3 0  9996,2 50835  53.2169  93.8077 0001673  89.7017 270.4167 15.08829728 99962,6917.912,95.438,540.934,538.619,0.0
50835.0,STARLINK-3310,PAYLOAD,2023-10-28 17:30:58,15.08830804,0.0001455,53.217,93.2141,87.9328,272.1831,-0.00012591,-2.291e-05,0.0,0 STARLINK-3310,1 50835U 22001AJ  23301.72984719 -.00002291  00000-0 -12591-3 0  9999,2 50835  53.2170  93.2141 0001455  87.9328 272.1831 15.08830804101242,6917.908,95.438,540.78,538.767,0.0
50835.0,STARLINK-3310,PAYLOAD,2023-10-29 03:03:17,15.08840387,0.0001509,53.2167,91.4295,82.2786,277.8377,-5.4379e-06,-3.75e-06,0.0,0 STARLINK-3310,1 50835U 22001AJ  23302.12728374 -.00000375  00000-0 -54379-5 0  9990,2 50835  53.2167  91.4295 0001509  82.2786 277.8377 15.08840387101305,6917.879,95.438,540.788,538.7,0.0
50835.0,STARLINK-3310,PAYLOAD,2023-10-29 14:10:59,15.08848375,0.0001317,53.2169,89.3482,86.4105,273.7038,0.000296,4.427e-05,0.0,0 STARLINK-3310,1 50835U 22001AJ  23302.59096116  .00004427  00000-0  29600-3 0  9990,2 50835  53.2169  89.3482 0001317  86.4105 273.7038 15.08848375100111,6917.855,95.437,540.631,538.809,0.0
50835.0,STARLINK-3310,PAYLOAD,2023-10-29 17:21:45,15.08855953,0.00014,53.2168,88.753,82.7156,277.3995,0.00046042,7.05e-05,0.0,0 STARLINK-3310,1 50835U 22001AJ  23302.72343857  .00007050  00000-0  46042-3 0  9996,2 50835  53.2168  88.7530 0001400  82.7156 277.3995 15.08855953101398,6917.832,95.437,540.665,538.728,0.0
50835.0,STARLINK-3310,PAYLOAD,2023-10-30 02:54:04,15.08845303,0.0001228,53.2177,86.9679,83.6612,276.452,0.0002913,4.352e-05,0.0,0 STARLINK-3310,1 50835U 22001AJ  23303.12088114  .00004352  00000-0  29130-3 0  9994,2 50835  53.2177  86.9679 0001228  83.6612 276.4520 15.08845303101456,6917.864,95.437,540.579,538.88,0.0
50835.0,STARLINK-3310,PAYLOAD,2023-10-30 18:47:55,15.08842641,0.0001507,53.2157,83.9942,85.7448,274.3716,0.00022482,3.292e-05,0.0,0 STARLINK-3310,1 50835U 22001AJ  23303.78328536  .00003292  00000-0  22482-3 0  9996,2 50835  53.2157  83.9942 0001507  85.7448 274.3716 15.08842641101551,6917.872,95.437,540.78,538.695,0.0
50835.0,STARLINK-3310,PAYLOAD,2023-10-31 02:44:51,15.08829836,0.0001595,53.216,82.5068,83.7714,276.346,0.00021138,3.077e-05,0.0,0 STARLINK-3310,1 50835U 22001AJ  23304.11449057  .00003077  00000-0  21138-3 0  9994,2 50835  53.2160  82.5068 0001595  83.7714 276.3460 15.08829836101605,6917.911,95.438,540.88,538.673,0.0
50835.0,STARLINK-3310,PAYLOAD,2023-10-31 13:52:34,15.08834723,0.0001534,53.2159,80.4277,78.7929,281.3236,0.00011571,1.554e-05,0.0,0 STARLINK-3310,1 50835U 22001AJ  23304.57817255  .00001554  00000-0  11571-3 0  9991,2 50835  53.2159  80.4277 0001534  78.7929 281.3236 15.08834723100413,6917.897,95.438,540.823,538.7,0.0
50835.0,STARLINK-3310,PAYLOAD,2023-10-31 15:27:57,15.08839251,0.0001327,53.2162,80.1296,80.5825,279.5317,0.00010278,1.348e-05,0.0,0 STARLINK-3310,1 50835U 22001AJ  23304.64440992  .00001348  00000-0  10278-3 0  9993,2 50835  53.2162  80.1296 0001327  80.5825 279.5317 15.08839251100422,6917.883,95.438,540.666,538.83,0.0
50835.0,STARLINK-3310,PAYLOAD,2023-11-01 15:18:44,15.08844711,0.0001268,53.2165,75.6697,81.7924,278.3212,0.00035227,5.324e-05,0.0,0 STARLINK-3310,1 50835U 22001AJ  23305.63801251  .00005324  00000-0  35227-3 0  9991,2 50835  53.2165  75.6697 0001268  81.7924 278.3212 15.08844711100570,6917.866,95.437,540.608,538.854,0.0
50835.0,STARLINK-3310,PAYLOAD,2023-11-01 18:29:30,15.0885209,0.0001308,53.2165,75.0745,81.5432,278.5709,0.00035227,5.325e-05,0.0,0 STARLINK-3310,1 50835U 22001AJ  23305.77048913  .00005325  00000-0  35227-3 0  9995,2 50835  53.2165  75.0745 0001308  81.5432 278.5709 15.08852090101859,6917.843,95.437,540.613,538.804,0.0
50835.0,STARLINK-3310,PAYLOAD,2023-11-02 11:58:45,15.08845777,0.0001429,53.218,71.8045,68.6198,291.4947,0.00022808,3.344e-05,0.0,0 STARLINK-3310,1 50835U 22001AJ  23306.49913273  .00003344  00000-0  22808-3 0  9995,2 50835  53.2180  71.8045 0001429  68.6198 291.4947 15.08845777101966,6917.863,95.437,540.716,538.739,0.0
50835.0,STARLINK-3310,PAYLOAD,2023-11-02 15:09:31,15.08850576,0.000126,53.2171,71.2094,84.707,275.4066,0.00031322,4.702e-05,0.0,0 STARLINK-3310,1 50835U 22001AJ  23306.63160982  .00004702  00000-0  31322-3 0  9992,2 50835  53.2171  71.2094 0001260  84.7070 275.4066 15.08850576100725,6917.848,95.437,540.585,538.841,0.0
50835.0,STARLINK-3310,PAYLOAD,2023-11-03 13:24:55,15.08843967,0.0001351,53.2183,67.0441,85.1537,274.9609,0.00014574,2.033e-05,0.0,0 STARLINK-3310,1 50835U 22001AJ  23307.55897089  .00002033  00000-0  14574-3 0  9994,2 50835  53.2183  67.0441 0001351  85.1537 274.9609 15.08843967100869,6917.868,95.437,540.668,538.799,0.0
50835.0,STARLINK-3310,PAYLOAD,2023-11-03 15:00:18,15.08844725,0.000135,53.2181,66.7466,85.0947,275.0199,0.00016963,2.413e-05,0.0,0 STARLINK-3310,1 50835U 22001AJ  23307.62521056  .00002413  00000-0  16963-3 0  9996,2 50835  53.2181  66.7466 0001350  85.0947 275.0199 15.08844725102134,6917.866,95.437,540.665,538.797,0.0
50835.0,STARLINK-3310,PAYLOAD,2023-11-04 10:04:56,15.08837088,0.0001482,53.2179,63.1802,88.047,272.0692,1.0857e-05,-1.15e-06,0.0,0 STARLINK-3310,1 50835U 22001AJ  23308.42009302 -.00000115  00000-0  10857-4 0  9995,2 50835  53.2179  63.1802 0001482  88.0470 272.0692 15.08837088102258,6917.889,95.438,540.78,538.729,0.0
